[{"OBJECT_NAME":"STARLINK-35812","OBJECT_ID":"2025-268T","EPOCH":"2026-03-09T03:24:28.051776","MEAN_MOTION":15.27584612,"ECCENTRICITY":0.00012752,"INCLINATION":42.9983,"RA_OF_ASC_NODE":350.3598,"ARG_OF_PERICENTER":269.6091,"MEAN_ANOMALY":90.4615,"EPHEMERIS_TYPE":0,"CLASSIFICATION_TYPE":"U","NORAD_CAT_ID":66574,"ELEMENT_SET_NO":999,"REV_AT_EPOCH":1787,"BSTAR":0.0010661444,"MEAN_MOTION_DOT":0.00029196,"MEAN_MOTION_DDOT":0},{"OBJECT_NAME":"OBJECT D","OBJECT_ID":"2021-102D","EPOCH":"2026-03-09T14:47:14.426880","MEAN_MOTION":15.2846442,"ECCENTRICITY":0.0009157,"INCLINATION":97.3342,"RA_OF_ASC_NODE":112.2633,"ARG_OF_PERICENTER":187.6206,"MEAN_ANOMALY":172.4897,"EPHEMERIS_TYPE":0,"CLASSIFICATION_TYPE":"U","NORAD_CAT_ID":49398,"ELEMENT_SET_NO":999,"REV_AT_EPOCH":23880,"BSTAR":0.00046011,"MEAN_MOTION_DOT":0.00012697,"MEAN_MOTION_DDOT":0}]
